{
  "type": "FeatureCollection",
  "features": [
    {
      "type": "Feature",
      "properties": {
        "norad_id": 34350,
        "name": "IRIDIUM 33 DEB",
        "group": "iridium-33-debris",
        "lat": 20.221104693722786,
        "lon": 3.054813237847387,
        "alt_km": 745.5005202079392,
        "timestamp": "2025-12-15T07:02:38.000033+00:00",
        "meta_object_name": "IRIDIUM 33 DEB",
        "meta_object_id": "1997-051ES",
        "meta_epoch": "2025-12-14T07:45:39.237120",
        "meta_mean_motion": 14.45391202,
        "meta_eccentricity": 0.00229581,
        "meta_inclination": 86.3275,
        "meta_ra_of_asc_node": 2.12,
        "meta_arg_of_pericenter": 130.2714,
        "meta_mean_anomaly": 245.6158,
        "meta_ephemeris_type": 0,
        "meta_classification_type": "U",
        "meta_norad_cat_id": 34350,
        "meta_element_set_no": 999,
        "meta_rev_at_epoch": 88316,
        "meta_bstar": 0.00041566324,
        "meta_mean_motion_dot": 1.486e-05,
        "meta_mean_motion_ddot": 0,
        "tle_line1": "1 34350U 97051ES  25348.32337080  .00001486  00000+0  41566-3 0  9998",
        "tle_line2": "2 34350  86.3275   2.1200 0022958 130.2714 245.6158 14.45391202883165"
      },
      "geometry": {
        "type": "Point",
        "coordinates": [
          3.054813237847387,
          20.221104693722786
        ]
      }
    },
    {
      "type": "Feature",
      "properties": {
        "norad_id": 34366,
        "name": "IRIDIUM 33 DEB",
        "group": "iridium-33-debris",
        "lat": 67.73144521326509,
        "lon": 57.1215422785764,
        "alt_km": 698.6353686231878,
        "timestamp": "2025-12-15T07:02:38.000043+00:00",
        "meta_object_name": "IRIDIUM 33 DEB",
        "meta_object_id": "1997-051FJ",
        "meta_epoch": "2025-12-14T16:27:37.334592",
        "meta_mean_motion": 14.54079263,
        "meta_eccentricity": 0.00225948,
        "meta_inclination": 86.3699,
        "meta_ra_of_asc_node": 48.4671,
        "meta_arg_of_pericenter": 133.4897,
        "meta_mean_anomaly": 356.0007,
        "meta_ephemeris_type": 0,
        "meta_classification_type": "U",
        "meta_norad_cat_id": 34366,
        "meta_element_set_no": 999,
        "meta_rev_at_epoch": 88210,
        "meta_bstar": 0.00084938669,
        "meta_mean_motion_dot": 3.618e-05,
        "meta_mean_motion_ddot": 0,
        "tle_line1": "1 34366U 97051FJ  25348.68584878  .00003618  00000+0  84939-3 0  9993",
        "tle_line2": "2 34366  86.3699  48.4671 0022594 133.4897 356.0007 14.54079263882103"
      },
      "geometry": {
        "type": "Point",
        "coordinates": [
          57.1215422785764,
          67.73144521326509
        ]
      }
    },
    {
      "type": "Feature",
      "properties": {
        "norad_id": 34375,
        "name": "IRIDIUM 33 DEB",
        "group": "iridium-33-debris",
        "lat": 10.956470817778634,
        "lon": -177.6381972230646,
        "alt_km": 855.5075960698068,
        "timestamp": "2025-12-15T07:02:38.000054+00:00",
        "meta_object_name": "IRIDIUM 33 DEB",
        "meta_object_id": "1997-051FT",
        "meta_epoch": "2025-12-14T23:15:44.995392",
        "meta_mean_motion": 14.17996114,
        "meta_eccentricity": 0.01034399,
        "meta_inclination": 86.4325,
        "meta_ra_of_asc_node": 181.8005,
        "meta_arg_of_pericenter": 119.7401,
        "meta_mean_anomaly": 38.4178,
        "meta_ephemeris_type": 0,
        "meta_classification_type": "U",
        "meta_norad_cat_id": 34375,
        "meta_element_set_no": 999,
        "meta_rev_at_epoch": 86743,
        "meta_bstar": 0.00043772689,
        "meta_mean_motion_dot": 9.64e-06,
        "meta_mean_motion_ddot": 0,
        "tle_line1": "1 34375U 97051FT  25348.96927078  .00000964  00000+0  43773-3 0  9999",
        "tle_line2": "2 34375  86.4325 181.8005 0103439 119.7401  38.4178 14.17996114867430"
      },
      "geometry": {
        "type": "Point",
        "coordinates": [
          -177.6381972230646,
          10.956470817778634
        ]
      }
    },
    {
      "type": "Feature",
      "properties": {
        "norad_id": 34376,
        "name": "IRIDIUM 33 DEB",
        "group": "iridium-33-debris",
        "lat": 73.2441716434884,
        "lon": 17.808523230781695,
        "alt_km": 675.9133311253281,
        "timestamp": "2025-12-15T07:02:38.000064+00:00",
        "meta_object_name": "IRIDIUM 33 DEB",
        "meta_object_id": "1997-051FU",
        "meta_epoch": "2025-12-14T19:12:49.184064",
        "meta_mean_motion": 14.6260256,
        "meta_eccentricity": 0.00274222,
        "meta_inclination": 86.2985,
        "meta_ra_of_asc_node": 5.6136,
        "meta_arg_of_pericenter": 159.8088,
        "meta_mean_anomaly": 200.4214,
        "meta_ephemeris_type": 0,
        "meta_classification_type": "U",
        "meta_norad_cat_id": 34376,
        "meta_element_set_no": 999,
        "meta_rev_at_epoch": 88037,
        "meta_bstar": 0.00097473546,
        "meta_mean_motion_dot": 5e-05,
        "meta_mean_motion_ddot": 0,
        "tle_line1": "1 34376U 97051FU  25348.80056926  .00005000  00000+0  97474-3 0  9991",
        "tle_line2": "2 34376  86.2985   5.6136 0027422 159.8088 200.4214 14.62602560880371"
      },
      "geometry": {
        "type": "Point",
        "coordinates": [
          17.808523230781695,
          73.2441716434884
        ]
      }
    },
    {
      "type": "Feature",
      "properties": {
        "norad_id": 34486,
        "name": "IRIDIUM 33 DEB",
        "group": "iridium-33-debris",
        "lat": -56.154454609185876,
        "lon": -163.7564820007477,
        "alt_km": 592.9120801128001,
        "timestamp": "2025-12-15T07:02:38.000075+00:00",
        "meta_object_name": "IRIDIUM 33 DEB",
        "meta_object_id": "1997-051GB",
        "meta_epoch": "2025-12-14T19:32:13.539840",
        "meta_mean_motion": 14.9591553,
        "meta_eccentricity": 0.00138725,
        "meta_inclination": 86.3934,
        "meta_ra_of_asc_node": 11.0678,
        "meta_arg_of_pericenter": 107.504,
        "meta_mean_anomaly": 68.3575,
        "meta_ephemeris_type": 0,
        "meta_classification_type": "U",
        "meta_norad_cat_id": 34486,
        "meta_element_set_no": 999,
        "meta_rev_at_epoch": 89017,
        "meta_bstar": 0.0016186556,
        "meta_mean_motion_dot": 0.00018197,
        "meta_mean_motion_ddot": 0,
        "tle_line1": "1 34486U 97051GB  25348.81404560  .00018197  00000+0  16187-2 0  9997",
        "tle_line2": "2 34486  86.3934  11.0678 0013872 107.5040  68.3575 14.95915530890172"
      },
      "geometry": {
        "type": "Point",
        "coordinates": [
          -163.7564820007477,
          -56.154454609185876
        ]
      }
    },
    {
      "type": "Feature",
      "properties": {
        "norad_id": 34487,
        "name": "IRIDIUM 33 DEB",
        "group": "iridium-33-debris",
        "lat": 51.654795169021945,
        "lon": -173.35882487973697,
        "alt_km": 719.9486109350291,
        "timestamp": "2025-12-15T07:02:38.000085+00:00",
        "meta_object_name": "IRIDIUM 33 DEB",
        "meta_object_id": "1997-051GC",
        "meta_epoch": "2025-12-14T19:37:15.285792",
        "meta_mean_motion": 14.43218974,
        "meta_eccentricity": 0.00328977,
        "meta_inclination": 86.3435,
        "meta_ra_of_asc_node": 11.4828,
        "meta_arg_of_pericenter": 121.8629,
        "meta_mean_anomaly": 54.9106,
        "meta_ephemeris_type": 0,
        "meta_classification_type": "U",
        "meta_norad_cat_id": 34487,
        "meta_element_set_no": 999,
        "meta_rev_at_epoch": 88278,
        "meta_bstar": 0.00021232189,
        "meta_mean_motion_dot": 7.39e-06,
        "meta_mean_motion_ddot": 0,
        "tle_line1": "1 34487U 97051GC  25348.81753803  .00000739  00000+0  21232-3 0  9996",
        "tle_line2": "2 34487  86.3435  11.4828 0032897 121.8629  54.9106 14.43218974882780"
      },
      "geometry": {
        "type": "Point",
        "coordinates": [
          -173.35882487973697,
          51.654795169021945
        ]
      }
    },
    {
      "type": "Feature",
      "properties": {
        "norad_id": 34488,
        "name": "IRIDIUM 33 DEB",
        "group": "iridium-33-debris",
        "lat": 8.696756520533473,
        "lon": 123.98447547512058,
        "alt_km": 482.45696664283696,
        "timestamp": "2025-12-15T07:02:38.000096+00:00",
        "meta_object_name": "IRIDIUM 33 DEB",
        "meta_object_id": "1997-051GD",
        "meta_epoch": "2025-12-13T21:20:06.708192",
        "meta_mean_motion": 15.29804687,
        "meta_eccentricity": 0.00127774,
        "meta_inclination": 86.3232,
        "meta_ra_of_asc_node": 305.2445,
        "meta_arg_of_pericenter": 49.9187,
        "meta_mean_anomaly": 310.3179,
        "meta_ephemeris_type": 0,
        "meta_classification_type": "U",
        "meta_norad_cat_id": 34488,
        "meta_element_set_no": 999,
        "meta_rev_at_epoch": 89257,
        "meta_bstar": 0.0047409619,
        "meta_mean_motion_dot": 0.00139416,
        "meta_mean_motion_ddot": 0,
        "tle_line1": "1 34488U 97051GD  25347.88896653  .00139416  00000+0  47410-2 0  9994",
        "tle_line2": "2 34488  86.3232 305.2445 0012777  49.9187 310.3179 15.29804687892573"
      },
      "geometry": {
        "type": "Point",
        "coordinates": [
          123.98447547512058,
          8.696756520533473
        ]
      }
    }
  ]
}